[{"OBJECT_NAME":"ONEWEB-0640","OBJECT_ID":"2023-029J","EPOCH":"2025-12-29T10:21:27.540864","MEAN_MOTION":13.14501127,"ECCENTRICITY":0.0002479,"INCLINATION":87.9004,"RA_OF_ASC_NODE":323.5781,"ARG_OF_PERICENTER":71.6834,"MEAN_ANOMALY":288.4565,"EPHEMERIS_TYPE":0,"CLASSIFICATION_TYPE":"U","NORAD_CAT_ID":55804,"ELEMENT_SET_NO":999,"REV_AT_EPOCH":13711,"BSTAR":0.00074021,"MEAN_MOTION_DOT":2.87e-6,"MEAN_MOTION_DDOT":0},{"OBJECT_NAME":"ONEWEB-0641","OBJECT_ID":"2023-029K","EPOCH":"2025-12-29T08:22:50.333952","MEAN_MOTION":13.19726394,"ECCENTRICITY":0.0001735,"INCLINATION":87.9214,"RA_OF_ASC_NODE":338.7551,"ARG_OF_PERICENTER":78.3983,"MEAN_ANOMALY":281.7344,"EPHEMERIS_TYPE":0,"CLASSIFICATION_TYPE":"U","NORAD_CAT_ID":55805,"ELEMENT_SET_NO":999,"REV_AT_EPOCH":13651,"BSTAR":-3.1821e-5,"MEAN_MOTION_DOT":0,"MEAN_MOTION_DDOT":0},{"OBJECT_NAME":"ONEWEB-0642","OBJECT_ID":"2023-029L","EPOCH":"2025-12-29T11:54:22.101696","MEAN_MOTION":13.1972649,"ECCENTRICITY":0.0001528,"INCLINATION":87.9199,"RA_OF_ASC_NODE":338.7475,"ARG_OF_PERICENTER":54.4255,"MEAN_ANOMALY":305.702,"EPHEMERIS_TYPE":0,"CLASSIFICATION_TYPE":"U","NORAD_CAT_ID":55806,"ELEMENT_SET_NO":999,"REV_AT_EPOCH":13652,"BSTAR":0.00041579,"MEAN_MOTION_DOT":1.79e-6,"MEAN_MOTION_DDOT":0},{"OBJECT_NAME":"ONEWEB-0643","OBJECT_ID":"2023-029M","EPOCH":"2025-12-29T07:48:27.578880","MEAN_MOTION":13.14502373,"ECCENTRICITY":0.0001331,"INCLINATION":87.9002,"RA_OF_ASC_NODE":323.5859,"ARG_OF_PERICENTER":60.6956,"MEAN_ANOMALY":299.4307,"EPHEMERIS_TYPE":0,"CLASSIFICATION_TYPE":"U","NORAD_CAT_ID":55807,"ELEMENT_SET_NO":999,"REV_AT_EPOCH":13707,"BSTAR":6.2681e-5,"MEAN_MOTION_DOT":3.6e-7,"MEAN_MOTION_DDOT":0},{"OBJECT_NAME":"ONEWEB-0644","OBJECT_ID":"2023-029N","EPOCH":"2025-12-28T23:03:17.388288","MEAN_MOTION":13.1972749,"ECCENTRICITY":0.00015921,"INCLINATION":87.9199,"RA_OF_ASC_NODE":338.8632,"ARG_OF_PERICENTER":72.4064,"MEAN_ANOMALY":287.7242,"EPHEMERIS_TYPE":0,"CLASSIFICATION_TYPE":"U","NORAD_CAT_ID":55808,"ELEMENT_SET_NO":999,"REV_AT_EPOCH":13645,"BSTAR":2.4437622e-5,"MEAN_MOTION_DOT":2.3e-7,"MEAN_MOTION_DDOT":0},{"OBJECT_NAME":"ONEWEB-0645","OBJECT_ID":"2023-029P","EPOCH":"2025-12-29T10:30:13.523328","MEAN_MOTION":13.19725409,"ECCENTRICITY":0.0001966,"INCLINATION":87.9197,"RA_OF_ASC_NODE":338.7616,"ARG_OF_PERICENTER":67.5908,"MEAN_ANOMALY":292.5433,"EPHEMERIS_TYPE":0,"CLASSIFICATION_TYPE":"U","NORAD_CAT_ID":55809,"ELEMENT_SET_NO":999,"REV_AT_EPOCH":13651,"BSTAR":7.4988e-5,"MEAN_MOTION_DOT":4.3e-7,"MEAN_MOTION_DDOT":0},{"OBJECT_NAME":"ONEWEB-0646","OBJECT_ID":"2023-029Q","EPOCH":"2025-12-29T10:55:14.679264","MEAN_MOTION":13.19725277,"ECCENTRICITY":0.0001649,"INCLINATION":87.9209,"RA_OF_ASC_NODE":338.7513,"ARG_OF_PERICENTER":75.5661,"MEAN_ANOMALY":284.5654,"EPHEMERIS_TYPE":0,"CLASSIFICATION_TYPE":"U","NORAD_CAT_ID":55810,"ELEMENT_SET_NO":999,"REV_AT_EPOCH":13650,"BSTAR":0.00011546,"MEAN_MOTION_DOT":5.9e-7,"MEAN_MOTION_DDOT":0},{"OBJECT_NAME":"ONEWEB-0648","OBJECT_ID":"2023-029R","EPOCH":"2025-12-29T08:52:24.417120","MEAN_MOTION":13.14502324,"ECCENTRICITY":0.0002099,"INCLINATION":87.9009,"RA_OF_ASC_NODE":323.5385,"ARG_OF_PERICENTER":53.4824,"MEAN_ANOMALY":306.6499,"EPHEMERIS_TYPE":0,"CLASSIFICATION_TYPE":"U","NORAD_CAT_ID":55811,"ELEMENT_SET_NO":999,"REV_AT_EPOCH":13708,"BSTAR":-0.00011104,"MEAN_MOTION_DOT":-2.8e-7,"MEAN_MOTION_DDOT":0},{"OBJECT_NAME":"ONEWEB-0649","OBJECT_ID":"2023-029S","EPOCH":"2025-12-29T11:31:37.321248","MEAN_MOTION":13.19726072,"ECCENTRICITY":0.0001821,"INCLINATION":87.9208,"RA_OF_ASC_NODE":338.7428,"ARG_OF_PERICENTER":69.8946,"MEAN_ANOMALY":290.2383,"EPHEMERIS_TYPE":0,"CLASSIFICATION_TYPE":"U","NORAD_CAT_ID":55812,"ELEMENT_SET_NO":999,"REV_AT_EPOCH":13654,"BSTAR":0.0001291,"MEAN_MOTION_DOT":6.5e-7,"MEAN_MOTION_DDOT":0},{"OBJECT_NAME":"ONEWEB-0650","OBJECT_ID":"2023-029T","EPOCH":"2025-12-29T09:35:37.955040","MEAN_MOTION":13.19725317,"ECCENTRICITY":0.000166,"INCLINATION":87.9207,"RA_OF_ASC_NODE":338.764,"ARG_OF_PERICENTER":67.8988,"MEAN_ANOMALY":292.2321,"EPHEMERIS_TYPE":0,"CLASSIFICATION_TYPE":"U","NORAD_CAT_ID":55813,"ELEMENT_SET_NO":999,"REV_AT_EPOCH":13650,"BSTAR":-2.427e-5,"MEAN_MOTION_DOT":3.0e-8,"MEAN_MOTION_DDOT":0},{"OBJECT_NAME":"ONEWEB-0652","OBJECT_ID":"2023-029U","EPOCH":"2025-12-29T08:25:00.117120","MEAN_MOTION":13.14501349,"ECCENTRICITY":0.0001809,"INCLINATION":87.9003,"RA_OF_ASC_NODE":323.5623,"ARG_OF_PERICENTER":86.9204,"MEAN_ANOMALY":273.2132,"EPHEMERIS_TYPE":0,"CLASSIFICATION_TYPE":"U","NORAD_CAT_ID":55814,"ELEMENT_SET_NO":999,"REV_AT_EPOCH":13705,"BSTAR":0.00068851,"MEAN_MOTION_DOT":2.68e-6,"MEAN_MOTION_DDOT":0},{"OBJECT_NAME":"ONEWEB-0653","OBJECT_ID":"2023-029V","EPOCH":"2025-12-29T09:51:46.462752","MEAN_MOTION":13.14501831,"ECCENTRICITY":0.0001931,"INCLINATION":87.9002,"RA_OF_ASC_NODE":323.5396,"ARG_OF_PERICENTER":83.3777,"MEAN_ANOMALY":276.7573,"EPHEMERIS_TYPE":0,"CLASSIFICATION_TYPE":"U","NORAD_CAT_ID":55815,"ELEMENT_SET_NO":999,"REV_AT_EPOCH":13709,"BSTAR":0.00052941,"MEAN_MOTION_DOT":2.09e-6,"MEAN_MOTION_DDOT":0},{"OBJECT_NAME":"ONEWEB-0654","OBJECT_ID":"2023-029W","EPOCH":"2025-12-29T09:44:55.396608","MEAN_MOTION":13.14501787,"ECCENTRICITY":0.0001947,"INCLINATION":87.9006,"RA_OF_ASC_NODE":323.54,"ARG_OF_PERICENTER":91.4711,"MEAN_ANOMALY":268.6641,"EPHEMERIS_TYPE":0,"CLASSIFICATION_TYPE":"U","NORAD_CAT_ID":55816,"ELEMENT_SET_NO":999,"REV_AT_EPOCH":13711,"BSTAR":1.1641e-5,"MEAN_MOTION_DOT":1.7e-7,"MEAN_MOTION_DDOT":0},{"OBJECT_NAME":"ONEWEB-0656","OBJECT_ID":"2023-029X","EPOCH":"2025-12-28T21:40:04.578528","MEAN_MOTION":13.20771452,"ECCENTRICITY":0.00019816,"INCLINATION":87.9221,"RA_OF_ASC_NODE":308.3906,"ARG_OF_PERICENTER":91.6628,"MEAN_ANOMALY":268.4733,"EPHEMERIS_TYPE":0,"CLASSIFICATION_TYPE":"U","NORAD_CAT_ID":55817,"ELEMENT_SET_NO":999,"REV_AT_EPOCH":13867,"BSTAR":7.646032e-5,"MEAN_MOTION_DOT":4.4e-7,"MEAN_MOTION_DDOT":0},{"OBJECT_NAME":"ONEWEB-0657","OBJECT_ID":"2023-029Y","EPOCH":"2025-12-29T11:17:57.221088","MEAN_MOTION":13.19727942,"ECCENTRICITY":0.0001398,"INCLINATION":87.9201,"RA_OF_ASC_NODE":338.7512,"ARG_OF_PERICENTER":109.0778,"MEAN_ANOMALY":251.0506,"EPHEMERIS_TYPE":0,"CLASSIFICATION_TYPE":"U","NORAD_CAT_ID":55818,"ELEMENT_SET_NO":999,"REV_AT_EPOCH":13652,"BSTAR":0.00015417,"MEAN_MOTION_DOT":7.5e-7,"MEAN_MOTION_DDOT":0},{"OBJECT_NAME":"ONEWEB-0658","OBJECT_ID":"2023-029Z","EPOCH":"2025-12-29T11:11:08.710656","MEAN_MOTION":13.19726616,"ECCENTRICITY":0.0001553,"INCLINATION":87.9218,"RA_OF_ASC_NODE":338.7085,"ARG_OF_PERICENTER":70.2243,"MEAN_ANOMALY":289.9057,"EPHEMERIS_TYPE":0,"CLASSIFICATION_TYPE":"U","NORAD_CAT_ID":55819,"ELEMENT_SET_NO":999,"REV_AT_EPOCH":13653,"BSTAR":0.00012308,"MEAN_MOTION_DOT":6.2e-7,"MEAN_MOTION_DDOT":0},{"OBJECT_NAME":"ONEWEB-0660","OBJECT_ID":"2023-029AA","EPOCH":"2025-12-29T11:02:33.338112","MEAN_MOTION":13.14501043,"ECCENTRICITY":0.0002018,"INCLINATION":87.9012,"RA_OF_ASC_NODE":323.5097,"ARG_OF_PERICENTER":74.4224,"MEAN_ANOMALY":285.7129,"EPHEMERIS_TYPE":0,"CLASSIFICATION_TYPE":"U","NORAD_CAT_ID":55820,"ELEMENT_SET_NO":999,"REV_AT_EPOCH":13710,"BSTAR":-0.0004388,"MEAN_MOTION_DOT":-1.5e-6,"MEAN_MOTION_DDOT":0},{"OBJECT_NAME":"ONEWEB-0661","OBJECT_ID":"2023-029AB","EPOCH":"2025-12-29T08:13:35.012640","MEAN_MOTION":13.14501729,"ECCENTRICITY":0.0002074,"INCLINATION":87.9002,"RA_OF_ASC_NODE":323.597,"ARG_OF_PERICENTER":77.0266,"MEAN_ANOMALY":283.1095,"EPHEMERIS_TYPE":0,"CLASSIFICATION_TYPE":"U","NORAD_CAT_ID":55821,"ELEMENT_SET_NO":999,"REV_AT_EPOCH":13707,"BSTAR":0.00082241,"MEAN_MOTION_DOT":3.18e-6,"MEAN_MOTION_DDOT":0},{"OBJECT_NAME":"ONEWEB-0662","OBJECT_ID":"2023-029AC","EPOCH":"2025-12-29T10:53:26.000160","MEAN_MOTION":13.1450241,"ECCENTRICITY":0.0001995,"INCLINATION":87.9005,"RA_OF_ASC_NODE":323.5813,"ARG_OF_PERICENTER":74.012,"MEAN_ANOMALY":286.1229,"EPHEMERIS_TYPE":0,"CLASSIFICATION_TYPE":"U","NORAD_CAT_ID":55822,"ELEMENT_SET_NO":999,"REV_AT_EPOCH":13713,"BSTAR":-0.00046397,"MEAN_MOTION_DOT":-1.59e-6,"MEAN_MOTION_DDOT":0},{"OBJECT_NAME":"ONEWEB-0663","OBJECT_ID":"2023-029AD","EPOCH":"2025-12-28T20:56:30.097248","MEAN_MOTION":13.21122966,"ECCENTRICITY":0.00022826,"INCLINATION":87.9217,"RA_OF_ASC_NODE":308.4631,"ARG_OF_PERICENTER":124.2524,"MEAN_ANOMALY":235.8826,"EPHEMERIS_TYPE":0,"CLASSIFICATION_TYPE":"U","NORAD_CAT_ID":55823,"ELEMENT_SET_NO":999,"REV_AT_EPOCH":13866,"BSTAR":0.086524205,"MEAN_MOTION_DOT":0.00035516,"MEAN_MOTION_DDOT":0},{"OBJECT_NAME":"ONEWEB-0664","OBJECT_ID":"2023-029AE","EPOCH":"2025-12-29T08:16:25.873824","MEAN_MOTION":13.20770647,"ECCENTRICITY":0.0002187,"INCLINATION":87.9213,"RA_OF_ASC_NODE":308.3733,"ARG_OF_PERICENTER":81.3854,"MEAN_ANOMALY":278.7527,"EPHEMERIS_TYPE":0,"CLASSIFICATION_TYPE":"U","NORAD_CAT_ID":55824,"ELEMENT_SET_NO":999,"REV_AT_EPOCH":13872,"BSTAR":0.0002421,"MEAN_MOTION_DOT":1.11e-6,"MEAN_MOTION_DDOT":0},{"OBJECT_NAME":"ONEWEB-0665","OBJECT_ID":"2023-029AF","EPOCH":"2025-12-29T08:09:00.930240","MEAN_MOTION":13.14501355,"ECCENTRICITY":0.0001973,"INCLINATION":87.9001,"RA_OF_ASC_NODE":323.5764,"ARG_OF_PERICENTER":70.9496,"MEAN_ANOMALY":289.1847,"EPHEMERIS_TYPE":0,"CLASSIFICATION_TYPE":"U","NORAD_CAT_ID":55825,"ELEMENT_SET_NO":999,"REV_AT_EPOCH":13709,"BSTAR":0.00074088,"MEAN_MOTION_DOT":2.87e-6,"MEAN_MOTION_DDOT":0},{"OBJECT_NAME":"ONEWEB-0666","OBJECT_ID":"2023-029AG","EPOCH":"2025-12-29T06:18:13.502592","MEAN_MOTION":13.20779594,"ECCENTRICITY":0.0001534,"INCLINATION":87.9217,"RA_OF_ASC_NODE":308.379,"ARG_OF_PERICENTER":101.9851,"MEAN_ANOMALY":258.1455,"EPHEMERIS_TYPE":0,"CLASSIFICATION_TYPE":"U","NORAD_CAT_ID":55826,"ELEMENT_SET_NO":999,"REV_AT_EPOCH":13872,"BSTAR":-0.0023098,"MEAN_MOTION_DOT":-9.26e-6,"MEAN_MOTION_DDOT":0},{"OBJECT_NAME":"ONEWEB-0667","OBJECT_ID":"2023-029AH","EPOCH":"2025-12-29T09:47:20.321376","MEAN_MOTION":13.20772865,"ECCENTRICITY":0.0001954,"INCLINATION":87.9226,"RA_OF_ASC_NODE":308.2842,"ARG_OF_PERICENTER":75.5141,"MEAN_ANOMALY":284.6209,"EPHEMERIS_TYPE":0,"CLASSIFICATION_TYPE":"U","NORAD_CAT_ID":55827,"ELEMENT_SET_NO":999,"REV_AT_EPOCH":13873,"BSTAR":0.00019156,"MEAN_MOTION_DOT":9.1e-7,"MEAN_MOTION_DDOT":0}]
